CELESTIS-02             
1 25160U 98007D   11157.83983934 -.00000061  00000-0  30546-4 0  6447
2 25160 107.9638  89.8138 0063532 178.4558 181.6781 14.20910526690663
CELESTIS-03             
1 26034U 99070C   11157.12850303  .00002016  00000-0  26629-3 0  1648
2 26034  98.3038 207.1633 0018095 199.7159 160.3342 14.81111429616682
AMC-14                  
1 32708U 08011A   11157.23320829  .00000170  00000-0  10000-3 0  7804
2 32708  14.7296 102.1753 0053159 356.7003 273.8285  1.00274080 13110
